OBJECT_NAME,OBJECT_ID,EPOCH,MEAN_MOTION,ECCENTRICITY,INCLINATION,RA_OF_ASC_NODE,ARG_OF_PERICENTER,MEAN_ANOMALY,EPHEMERIS_TYPE,CLASSIFICATION_TYPE,NORAD_CAT_ID,ELEMENT_SET_NO,REV_AT_EPOCH,BSTAR,MEAN_MOTION_DOT,MEAN_MOTION_DDOT
BEIDOU-2 M4,2012-018B,2026-05-12T16:21:40.094784,1.86229765,.00109546,55.6900,305.2883,282.0858,77.7844,0,U,38251,999,9528,0,-.4E-6,0
ARIRANG-3 (KOMPSAT-3),2012-025B,2026-05-14T03:49:12.586944,14.62174941,.0004506,98.1158,92.2120,208.9606,151.1346,0,U,38338,999,74637,.5749E-4,.243E-5,0
METOP-B,2012-049A,2026-05-14T04:34:18.698016,14.21422895,.0003519,98.6527,186.3637,89.9263,270.2318,0,U,38771,999,70843,.50544E-4,.67E-6,0
SJ-9A,2012-056A,2026-05-14T05:08:27.292992,14.85398052,.0025931,97.6691,107.4018,12.8614,347.3257,0,U,38860,999,69454,.99032E-4,.805E-5,0
COSMOS 2484 (RODNIK-S 6),2013-001C,2026-05-14T04:15:57.271680,12.42938609,.0027545,82.5018,243.0342,108.1673,252.2409,0,U,39059,999,60433,.79027E-3,.12E-5,0
SARAL,2013-009A,2026-05-14T04:09:01.006848,14.32847329,.000257,98.5561,321.1709,50.3455,309.7956,0,U,39086,999,69073,.3679E-4,.57E-6,0
STRAND-1,2013-009E,2026-05-14T00:15:26.246016,14.37142218,.0008128,98.3916,315.0879,341.2705,18.8182,0,U,39090,999,69215,.72578E-4,.173E-5,0
BRITE-AUSTRIA,2013-009F,2026-05-13T10:50:27.342240,14.36527680,.00098989,98.3988,313.7488,350.9654,9.1353,0,U,39091,999,69206,.49497909E-4,.103E-5,0
GAOFEN-1,2013-018A,2026-05-14T04:18:14.819616,14.76537195,.001748,97.9105,206.9356,20.5766,339.6144,0,U,39150,999,70322,.61476E-4,.379E-5,0
NEE-01 PEGASO,2013-018B,2026-05-13T08:40:10.227072,14.93483981,.00112806,98.1178,276.3748,279.5915,80.4029,0,U,39151,999,70550,.14717258E-3,.1488E-4,0
PROBA-V,2013-021A,2026-05-13T12:56:05.623872,14.23589391,.0003214,98.3571,113.8602,222.2044,137.8888,0,U,39159,999,67618,.36399186E-4,.42E-6,0
ARIRANG-5 (KOMPSAT-5),2013-042A,2026-05-14T04:19:31.903104,15.04488272,.0001965,97.6219,321.3584,235.9186,124.1854,0,U,39227,999,69874,.52046E-4,.668E-5,0
GONETS-M 5,2013-048A,2026-05-14T05:25:05.334816,12.42890465,.0015784,82.4862,4.5577,289.5385,70.3990,0,U,39249,999,57466,-.76876E-3,-.97E-6,0
GONETS-M 7,2013-048C,2026-05-14T04:32:38.563008,12.42913064,.0016611,82.4930,7.4844,290.9139,69.0163,0,U,39251,999,57461,-.11102E-2,-.144E-5,0
FENGYUN 3C,2013-052A,2026-05-14T04:35:08.886912,14.15746747,.0015675,98.4964,109.6314,118.8384,241.4367,0,U,39260,999,65375,.44621E-4,.46E-6,0
CASSIOPE,2013-055A,2026-05-14T03:29:48.861024,15.22625158,.0301038,80.9124,107.9657,176.5149,183.8287,0,U,39265,999,66248,.27492E-3,.24144E-3,-.61564E-6
APRIZESAT 7,2013-066A,2026-05-13T09:40:08.455296,14.91481972,.00350354,97.7689,87.1297,328.9994,30.9157,0,U,39416,999,67604,.91270966E-4,.865E-5,0
ZACUBE-1 (TSHEPISOSAT),2013-066B,2026-05-14T03:26:34.626048,15.00915790,.0041717,97.8119,96.2956,7.6658,352.5194,0,U,39417,999,67562,.24077E-3,.3059E-4,0
APRIZESAT 8,2013-066K,2026-05-14T02:33:19.592064,14.87575800,.0046995,97.8204,82.0566,39.6027,320.8606,0,U,39425,999,67460,.81452E-4,.698E-5,0
TRITON-1,2013-066M,2026-05-14T04:34:47.502048,14.81553737,.0090083,97.8266,44.7720,346.2935,13.5833,0,U,39427,999,66905,.26799E-3,.2198E-4,0
