BEIDOU-2 M4             
1 38251U 12018B   26132.68171406 -.00000040  00000+0  00000+0 0  9991
2 38251  55.6900 305.2883 0010954 282.0858  77.7844  1.86229765 95284
ARIRANG-3 (KOMPSAT-3)   
1 38338U 12025B   26134.15917346  .00000243  00000+0  57490-4 0  9994
2 38338  98.1158  92.2120 0004506 208.9606 151.1346 14.62174941746378
METOP-B                 
1 38771U 12049A   26134.19049419  .00000067  00000+0  50544-4 0  9999
2 38771  98.6527 186.3637 0003519  89.9263 270.2318 14.21422895708437
SJ-9A                   
1 38860U 12056A   26134.21420478  .00000805  00000+0  99032-4 0  9992
2 38860  97.6691 107.4018 0025931  12.8614 347.3257 14.85398052694542
COSMOS 2484 (RODNIK-S 6)
1 39059U 13001C   26134.17774620  .00000120  00000+0  79027-3 0  9991
2 39059  82.5018 243.0342 0027545 108.1673 252.2409 12.42938609604333
SARAL                   
1 39086U 13009A   26134.17292832  .00000057  00000+0  36790-4 0  9999
2 39086  98.5561 321.1709 0002570  50.3455 309.7956 14.32847329690738
STRAND-1                
1 39090U 13009E   26134.01072044  .00000173  00000+0  72578-4 0  9991
2 39090  98.3916 315.0879 0008128 341.2705  18.8182 14.37142218692157
BRITE-AUSTRIA           
1 39091U 13009F   26133.45170535  .00000103  00000+0  49498-4 0  9991
2 39091  98.3988 313.7488 0009898 350.9654   9.1353 14.36527680692065
GAOFEN-1                
1 39150U 13018A   26134.17933819  .00000379  00000+0  61476-4 0  9994
2 39150  97.9105 206.9356 0017480  20.5766 339.6144 14.76537195703220
NEE-01 PEGASO           
1 39151U 13018B   26133.36122948  .00001488  00000+0  14717-3 0  9995
2 39151  98.1178 276.3748 0011280 279.5915  80.4029 14.93483981705502
PROBA-V                 
1 39159U 13021A   26133.53895398  .00000042  00000+0  36399-4 0  9998
2 39159  98.3571 113.8602 0003214 222.2044 137.8888 14.23589391676185
ARIRANG-5 (KOMPSAT-5)   
1 39227U 13042A   26134.18023036  .00000668  00000+0  52046-4 0  9992
2 39227  97.6219 321.3584 0001965 235.9186 124.1854 15.04488272698740
GONETS-M 5              
1 39249U 13048A   26134.22575619 -.00000097  00000+0 -76876-3 0  9990
2 39249  82.4862   4.5577 0015784 289.5385  70.3990 12.42890465574669
GONETS-M 7              
1 39251U 13048C   26134.18933522 -.00000144  00000+0 -11102-2 0  9992
2 39251  82.4930   7.4844 0016611 290.9139  69.0163 12.42913064574613
FENGYUN 3C              
1 39260U 13052A   26134.19107508  .00000046  00000+0  44621-4 0  9998
2 39260  98.4964 109.6314 0015675 118.8384 241.4367 14.15746747653752
CASSIOPE                
1 39265U 13055A   26134.14570441  .00024144 -61564-6  27492-3 0  9992
2 39265  80.9124 107.9657 0301038 176.5149 183.8287 15.22625158662484
APRIZESAT 7             
1 39416U 13066A   26133.40287564  .00000865  00000+0  91271-4 0  9992
2 39416  97.7689  87.1297 0035035 328.9994  30.9157 14.91481972676049
ZACUBE-1 (TSHEPISOSAT)  
1 39417U 13066B   26134.14345632  .00003059  00000+0  24077-3 0  9993
2 39417  97.8119  96.2956 0041717   7.6658 352.5194 15.00915790675622
APRIZESAT 8             
1 39425U 13066K   26134.10647676  .00000698  00000+0  81452-4 0  9998
2 39425  97.8204  82.0566 0046995  39.6027 320.8606 14.87575800674605
TRITON-1                
1 39427U 13066M   26134.19082757  .00002198  00000+0  26799-3 0  9991
2 39427  97.8266  44.7720 0090083 346.2935  13.5833 14.81553737669054
